CTC1_L_00646001-01
1 55514U 25802DZ  26070.40841435  .00000000  00000+0  00000-0 0  9990
2 55514  60.0000   0.0000 0000000   0.0000   0.0000  3.63177864    14
CTC1_L_00646001-02
1 55515U 22148FC  26070.40841435  .00000000  00000+0  00000-0 0  9991
2 55515  60.0000   0.0000 0000000   0.0000  36.0000  3.63177864    14
CTC1_L_00646001-03
1 55516U 25230YC  26070.40841435  .00000000  00000+0  00000-0 0  9997
2 55516  60.0000   0.0000 0000000   0.0000  72.0000  3.63177864    15
CTC1_L_00646001-04
1 55517U 22402YG  26070.40841435  .00000000  00000+0  00000-0 0  9996
2 55517  60.0000   0.0000 0000000   0.0000 108.0000  3.63177864    16
CTC1_L_00646001-05
1 55518U 22314XL  26070.40841435  .00000000  00000+0  00000-0 0  9999
2 55518  60.0000   0.0000 0000000   0.0000 144.0000  3.63177864    17
CTC1_L_00646001-06
1 55519U 25154WS  26070.40841435  .00000000  00000+0  00000-0 0  9995
2 55519  60.0000   0.0000 0000000   0.0000 180.0000  3.63177864    18
CTC1_L_00646001-07
1 55520U 22946ZP  26070.40841435  .00000000  00000+0  00000-0 0  9993
2 55520  60.0000   0.0000 0000000   0.0000 216.0000  3.63177864    10
CTC1_L_00646001-08
1 55521U 22832AO  26070.40841435  .00000000  00000+0  00000-0 0  9998
2 55521  60.0000   0.0000 0000000   0.0000 252.0000  3.63177864    11
CTC1_L_00646001-09
1 55522U 22184JU  26070.40841435  .00000000  00000+0  00000-0 0  9999
2 55522  60.0000   0.0000 0000000   0.0000 288.0000  3.63177864    11
CTC1_L_00646001-10
1 55523U 22560YM  26070.40841435  .00000000  00000+0  00000-0 0  9998
2 55523  60.0000   0.0000 0000000   0.0000 324.0000  3.63177864    13
CTC1_L_00646002-01
1 55524U 22285LN  26070.40841435  .00000000  00000+0  00000-0 0  9993
2 55524  60.0000  30.0000 0000000   0.0000  12.0000  3.63177864    11
CTC1_L_00646002-02
1 55525U 26951ME  26070.40841435  .00000000  00000+0  00000-0 0  9998
2 55525  60.0000  30.0000 0000000   0.0000  48.0000  3.63177864    11
CTC1_L_00646002-03
1 55526U 22585TW  26070.40841435  .00000000  00000+0  00000-0 0  9998
2 55526  60.0000  30.0000 0000000   0.0000  84.0000  3.63177864    12
CTC1_L_00646002-04
1 55527U 22187HU  26070.40841435  .00000000  00000+0  00000-0 0  9997
2 55527  60.0000  30.0000 0000000   0.0000 120.0000  3.63177864    14
CTC1_L_00646002-05
1 55528U 22017VO  26070.40841435  .00000000  00000+0  00000-0 0  9990
2 55528  60.0000  30.0000 0000000   0.0000 156.0000  3.63177864    14
CTC1_L_00646002-06
1 55529U 24455K   26070.40841435  .00000000  00000+0  00000-0 0  9999
2 55529  60.0000  30.0000 0000000   0.0000 192.0000  3.63177864    15
CTC1_L_00646002-07
1 55530U 22830UZ  26070.40841435  .00000000  00000+0  00000-0 0  9996
2 55530  60.0000  30.0000 0000000   0.0000 228.0000  3.63177864    17
CTC1_L_00646002-08
1 55531U 22110BJ  26070.40841435  .00000000  00000+0  00000-0 0  9998
2 55531  60.0000  30.0000 0000000   0.0000 264.0000  3.63177864    18
CTC1_L_00646002-09
1 55532U 26420IJ  26070.40841435  .00000000  00000+0  00000-0 0  9997
2 55532  60.0000  30.0000 0000000   0.0000 300.0000  3.63177864    10
CTC1_L_00646002-10
1 55533U 26988IP  26070.40841435  .00000000  00000+0  00000-0 0  9997
2 55533  60.0000  30.0000 0000000   0.0000 336.0000  3.63177864    10
CTC1_L_00646003-01
1 55534U 25536TB  26070.40841435  .00000000  00000+0  00000-0 0  9996
2 55534  60.0000  60.0000 0000000   0.0000  24.0000  3.63177864    18
CTC1_L_00646003-02
1 55535U 23083XV  26070.40841435  .00000000  00000+0  00000-0 0  9992
2 55535  60.0000  60.0000 0000000   0.0000  60.0000  3.63177864    19
CTC1_L_00646003-03
1 55536U 22557C   26070.40841435  .00000000  00000+0  00000-0 0  9998
2 55536  60.0000  60.0000 0000000   0.0000  96.0000  3.63177864    19
CTC1_L_00646003-04
1 55537U 23377YP  26070.40841435  .00000000  00000+0  00000-0 0  9990
2 55537  60.0000  60.0000 0000000   0.0000 132.0000  3.63177864    11
CTC1_L_00646003-05
1 55538U 26223RS  26070.40841435  .00000000  00000+0  00000-0 0  9994
2 55538  60.0000  60.0000 0000000   0.0000 168.0000  3.63177864    11
CTC1_L_00646003-06
1 55539U 25786ZW  26070.40841435  .00000000  00000+0  00000-0 0  9998
2 55539  60.0000  60.0000 0000000   0.0000 204.0000  3.63177864    13
CTC1_L_00646003-07
1 55540U 24094JS  26070.40841435  .00000000  00000+0  00000-0 0  9991
2 55540  60.0000  60.0000 0000000   0.0000 240.0000  3.63177864    15
CTC1_L_00646003-08
1 55541U 22192L   26070.40841435  .00000000  00000+0  00000-0 0  9999
2 55541  60.0000  60.0000 0000000   0.0000 276.0000  3.63177864    15
CTC1_L_00646003-09
1 55542U 23264IT  26070.40841435  .00000000  00000+0  00000-0 0  9991
2 55542  60.0000  60.0000 0000000   0.0000 312.0000  3.63177864    17
CTC1_L_00646003-10
1 55543U 24300MF  26070.40841435  .00000000  00000+0  00000-0 0  9994
2 55543  60.0000  60.0000 0000000   0.0000 348.0000  3.63177864    17
CTC1_L_00646004-01
1 55544U 23060AE  26070.40841435  .00000000  00000+0  00000-0 0  9997
2 55544  60.0000  90.0000 0000000   0.0000  36.0000  3.63177864    15
CTC1_L_00646004-02
1 55545U 24942YI  26070.40841435  .00000000  00000+0  00000-0 0  9998
2 55545  60.0000  90.0000 0000000   0.0000  72.0000  3.63177864    16
CTC1_L_00646004-03
1 55546U 25226HC  26070.40841435  .00000000  00000+0  00000-0 0  9995
2 55546  60.0000  90.0000 0000000   0.0000 108.0000  3.63177864    17
CTC1_L_00646004-04
1 55547U 24282KV  26070.40841435  .00000000  00000+0  00000-0 0  9997
2 55547  60.0000  90.0000 0000000   0.0000 144.0000  3.63177864    18
CTC1_L_00646004-05
1 55548U 22753JT  26070.40841435  .00000000  00000+0  00000-0 0  9999
2 55548  60.0000  90.0000 0000000   0.0000 180.0000  3.63177864    19
CTC1_L_00646004-06
1 55549U 22459OI  26070.40841435  .00000000  00000+0  00000-0 0  9993
2 55549  60.0000  90.0000 0000000   0.0000 216.0000  3.63177864    10
CTC1_L_00646004-07
1 55550U 23393AQ  26070.40841435  .00000000  00000+0  00000-0 0  9993
2 55550  60.0000  90.0000 0000000   0.0000 252.0000  3.63177864    12
CTC1_L_00646004-08
1 55551U 25119RB  26070.40841435  .00000000  00000+0  00000-0 0  9992
2 55551  60.0000  90.0000 0000000   0.0000 288.0000  3.63177864    12
CTC1_L_00646004-09
1 55552U 23246NP  26070.40841435  .00000000  00000+0  00000-0 0  9992
2 55552  60.0000  90.0000 0000000   0.0000 324.0000  3.63177864    14
CTC1_L_00646004-10
1 55553U 24170PH  26070.40841435  .00000000  00000+0  00000-0 0  9990
2 55553  60.0000  90.0000 0000000   0.0000   0.0000  3.63177864    16
CTC1_L_00646005-01
1 55554U 26723IC  26070.40841435  .00000000  00000+0  00000-0 0  9997
2 55554  60.0000 120.0000 0000000   0.0000  48.0000  3.63177864    13
CTC1_L_00646005-02
1 55555U 26234HV  26070.40841435  .00000000  00000+0  00000-0 0  9995
2 55555  60.0000 120.0000 0000000   0.0000  84.0000  3.63177864    14
CTC1_L_00646005-03
1 55556U 22831PF  26070.40841435  .00000000  00000+0  00000-0 0  9995
2 55556  60.0000 120.0000 0000000   0.0000 120.0000  3.63177864    16
CTC1_L_00646005-04
1 55557U 25331MV  26070.40841435  .00000000  00000+0  00000-0 0  9994
2 55557  60.0000 120.0000 0000000   0.0000 156.0000  3.63177864    16
CTC1_L_00646005-05
1 55558U 24034JF  26070.40841435  .00000000  00000+0  00000-0 0  9994
2 55558  60.0000 120.0000 0000000   0.0000 192.0000  3.63177864    17
CTC1_L_00646005-06
1 55559U 25535FC  26070.40841435  .00000000  00000+0  00000-0 0  9992
2 55559  60.0000 120.0000 0000000   0.0000 228.0000  3.63177864    18
CTC1_L_00646005-07
1 55560U 24841QK  26070.40841435  .00000000  00000+0  00000-0 0  9993
2 55560  60.0000 120.0000 0000000   0.0000 264.0000  3.63177864    10
CTC1_L_00646005-08
1 55561U 24706YG  26070.40841435  .00000000  00000+0  00000-0 0  9994
2 55561  60.0000 120.0000 0000000   0.0000 300.0000  3.63177864    12
CTC1_L_00646005-09
1 55562U 23237NO  26070.40841435  .00000000  00000+0  00000-0 0  9993
2 55562  60.0000 120.0000 0000000   0.0000 336.0000  3.63177864    12
CTC1_L_00646005-10
1 55563U 26197OC  26070.40841435  .00000000  00000+0  00000-0 0  9992
2 55563  60.0000 120.0000 0000000   0.0000  12.0000  3.63177864    14
CTC1_L_00646006-01
1 55564U 25644TZ  26070.40841435  .00000000  00000+0  00000-0 0  9999
2 55564  60.0000 150.0000 0000000   0.0000  60.0000  3.63177864    11
CTC1_L_00646006-02
1 55565U 24893QH  26070.40841435  .00000000  00000+0  00000-0 0  9995
2 55565  60.0000 150.0000 0000000   0.0000  96.0000  3.63177864    11
CTC1_L_00646006-03
1 55566U 26486JG  26070.40841435  .00000000  00000+0  00000-0 0  9996
2 55566  60.0000 150.0000 0000000   0.0000 132.0000  3.63177864    13
CTC1_L_00646006-04
1 55567U 24433FX  26070.40841435  .00000000  00000+0  00000-0 0  9997
2 55567  60.0000 150.0000 0000000   0.0000 168.0000  3.63177864    13
CTC1_L_00646006-05
1 55568U 23362YI  26070.40841435  .00000000  00000+0  00000-0 0  9998
2 55568  60.0000 150.0000 0000000   0.0000 204.0000  3.63177864    15
CTC1_L_00646006-06
1 55569U 22649IU  26070.40841435  .00000000  00000+0  00000-0 0  9996
2 55569  60.0000 150.0000 0000000   0.0000 240.0000  3.63177864    16
CTC1_L_00646006-07
1 55570U 22002KC  26070.40841435  .00000000  00000+0  00000-0 0  9991
2 55570  60.0000 150.0000 0000000   0.0000 276.0000  3.63177864    17
CTC1_L_00646006-08
1 55571U 23294KK  26070.40841435  .00000000  00000+0  00000-0 0  9996
2 55571  60.0000 150.0000 0000000   0.0000 312.0000  3.63177864    19
CTC1_L_00646006-09
1 55572U 24755FZ  26070.40841435  .00000000  00000+0  00000-0 0  9990
2 55572  60.0000 150.0000 0000000   0.0000 348.0000  3.63177864    19
CTC1_L_00646006-10
1 55573U 24193DA  26070.40841435  .00000000  00000+0  00000-0 0  9997
2 55573  60.0000 150.0000 0000000   0.0000  24.0000  3.63177864    11
CTC1_L_00646007-01
1 55574U 26351YP  26070.40841435  .00000000  00000+0  00000-0 0  9996
2 55574  60.0000 180.0000 0000000   0.0000  72.0000  3.63177864    18
CTC1_L_00646007-02
1 55575U 23828LS  26070.40841435  .00000000  00000+0  00000-0 0  9993
2 55575  60.0000 180.0000 0000000   0.0000 108.0000  3.63177864    19
